OBJECT_NAME,OBJECT_ID,EPOCH,MEAN_MOTION,ECCENTRICITY,INCLINATION,RA_OF_ASC_NODE,ARG_OF_PERICENTER,MEAN_ANOMALY,EPHEMERIS_TYPE,CLASSIFICATION_TYPE,NORAD_CAT_ID,ELEMENT_SET_NO,REV_AT_EPOCH,BSTAR,MEAN_MOTION_DOT,MEAN_MOTION_DDOT
STARLINK-32952,2025-043Q,2026-05-24T20:45:47.638080,15.27590207,.0002134,42.9998,312.8315,247.9635,112.0990,0,U,63146,999,6956,.57448E-3,.15585E-3,0
STARLINK-32936,2025-043R,2026-05-24T19:15:20.670912,15.27588409,.0001766,42.9992,313.2414,259.5304,100.5349,0,U,63147,999,6892,.42526866E-3,.11462E-3,0
STARLINK-32937,2025-043S,2026-05-25T03:07:31.590336,15.27585145,.0001448,42.9992,304.4755,273.4256,86.6430,0,U,63148,999,6905,.50646E-3,.13703E-3,0
STARLINK-32939,2025-043T,2026-05-24T20:36:05.528448,15.27602500,.00017483,42.9970,305.8798,271.6528,88.4123,0,U,63149,999,6901,.5451886E-3,.14781E-3,0
STARLINK-32919,2025-043U,2026-05-25T03:13:04.503360,15.27587239,.0001237,43.0001,304.5012,275.3538,84.7172,0,U,63150,999,6905,.33915E-3,.9084E-4,0
STARLINK-32876,2025-043V,2026-05-25T03:59:06.531648,15.27574744,.0001488,43.0028,303.8783,257.3569,102.7116,0,U,63151,999,6906,.29419E-3,.7841E-4,0
STARLINK-32915,2025-043W,2026-05-24T22:25:31.188000,15.27608914,.0002072,43.0015,312.4660,275.4678,84.5937,0,U,63152,999,6894,.925E-3,.25302E-3,0
SEDNA-2,2025-009DQ,2026-05-25T03:36:55.436832,15.11550698,.0010441,97.4546,219.2575,137.0119,223.1929,0,U,63153,999,7464,.45704E-3,.7699E-4,0
TJS-15,2025-045A,2026-05-24T17:07:21.902016,1.00274561,.0005613,0.2779,84.9730,295.0455,213.5325,0,U,63157,999,452,0,-.269E-5,0
QIANFAN-73,2025-046A,2026-05-25T03:17:48.094944,13.51014476,.0015252,88.9689,303.0834,19.2727,340.8998,0,U,63159,999,6947,.10315E-3,.79E-6,0
QIANFAN-74,2025-046B,2026-05-25T04:40:44.316768,13.51004183,.0001877,88.9690,302.9667,100.7131,259.4232,0,U,63160,999,6954,.12809E-3,.95E-6,0
QIANFAN-75,2025-046C,2026-05-25T04:22:49.390176,13.51003817,.0016406,88.9691,303.2042,21.7763,338.4083,0,U,63161,999,6941,.45078E-4,.41E-6,0
QIANFAN-76,2025-046D,2026-05-25T04:16:57.216864,13.51008441,.0013974,88.9692,303.1843,23.6665,336.5126,0,U,63162,999,6942,.22066E-3,.155E-5,0
QIANFAN-77,2025-046E,2026-05-25T03:56:08.082816,13.96191876,.0012644,88.9696,299.8457,293.0470,66.9373,0,U,63163,999,7125,.5058E-4,.83E-6,0
QIANFAN-78,2025-046F,2026-05-25T03:29:33.811008,13.51007836,.0015447,88.9691,303.0502,25.1484,335.0416,0,U,63164,999,6949,.46054E-4,.42E-6,0
QIANFAN-79,2025-046G,2026-05-25T04:11:07.255392,13.51007194,.001516,88.9694,303.1608,23.5560,336.6282,0,U,63165,999,6944,.12305E-3,.92E-6,0
QIANFAN-80,2025-046H,2026-05-25T04:34:48.953568,13.51005287,.0014175,88.9691,302.8615,28.4032,331.7889,0,U,63166,999,6960,.42746E-4,.4E-6,0
QIANFAN-81,2025-046J,2026-05-25T04:05:21.192288,13.51013402,.0015049,88.9687,302.9317,17.0914,343.0741,0,U,63167,999,6955,-.10297E-4,.5E-7,0
QIANFAN-82,2025-046K,2026-05-25T03:05:50.945568,13.51007178,.0013199,88.9691,302.9796,25.4948,334.6851,0,U,63168,999,6953,.6876E-4,.56E-6,0
QIANFAN-83,2025-046L,2026-05-25T02:01:56.282880,13.62036304,.0013683,88.9693,302.4389,1.2873,358.8317,0,U,63169,999,6983,.1043E-3,.93E-6,0
QIANFAN-84,2025-046M,2026-05-25T02:02:22.164864,13.51030618,.0016106,88.9691,303.1171,20.4110,339.7681,0,U,63170,999,6945,.19621E-3,.139E-5,0
QIANFAN-85,2025-046N,2026-05-25T01:54:50.806080,13.51014790,.0013654,88.9690,302.9880,24.1135,336.0653,0,U,63171,999,6952,.71981E-4,.59E-6,0
QIANFAN-86,2025-046P,2026-05-25T03:53:32.822016,13.51012452,.001164,88.9692,302.8453,29.6045,330.5763,0,U,63172,999,6961,.43141E-4,.4E-6,0
QIANFAN-87,2025-046Q,2026-05-25T03:11:56.991264,13.51013737,.0012011,88.9689,302.9538,24.8939,335.2789,0,U,63173,999,6954,.11784E-3,.88E-6,0
QIANFAN-88,2025-046R,2026-05-25T03:35:30.774336,13.51005690,.0012744,88.9691,302.9108,32.0869,328.1055,0,U,63174,999,6957,.48391E-4,.43E-6,0
QIANFAN-89,2025-046S,2026-05-25T04:29:03.939360,13.51012710,.0016956,88.9691,303.0961,20.2366,339.9453,0,U,63175,999,6947,.19495E-4,.25E-6,0
QIANFAN-90,2025-046T,2026-05-25T03:23:36.882240,13.51010591,.0013847,88.9692,303.0734,20.7091,339.4618,0,U,63176,999,6948,.15128E-3,.11E-5,0
PUNCH-NFI (SMEX 15A),2025-047A,2026-05-25T01:49:45.846048,14.74740291,.0009998,97.9565,330.9570,228.0015,132.0343,0,U,63178,999,6467,.68005E-4,.405E-5,0
PUNCH-WFI 1 (SMEX 15B),2025-047B,2026-05-25T02:47:02.889024,14.74319122,.0007668,97.9585,330.8565,248.9091,111.1298,0,U,63179,999,6466,.78222E-4,.468E-5,0
PUNCH-WFI 3 (SMEX 15D),2025-047C,2026-05-25T01:42:07.231392,14.74320235,.0008813,97.9546,330.5388,238.8553,121.1791,0,U,63180,999,6465,.70469E-4,.417E-5,0
PUNCH-WFI 2 (SMEX 15C),2025-047D,2026-05-25T02:15:08.659872,14.74320563,.0008006,97.9567,330.6231,254.0765,105.9562,0,U,63181,999,6465,.7035E-4,.416E-5,0
