STARLINK-32952          
1 63146U 25043Q   26144.86513470  .00015585  00000+0  57448-3 0  9999
2 63146  42.9998 312.8315 0002134 247.9635 112.0990 15.27590207 69568
STARLINK-32936          
1 63147U 25043R   26144.80232258  .00011462  00000+0  42527-3 0  9998
2 63147  42.9992 313.2414 0001766 259.5304 100.5349 15.27588409 68920
STARLINK-32937          
1 63148U 25043S   26145.13022674  .00013703  00000+0  50646-3 0  9996
2 63148  42.9992 304.4755 0001448 273.4256  86.6430 15.27585145 69053
STARLINK-32939          
1 63149U 25043T   26144.85839732  .00014781  00000+0  54519-3 0  9996
2 63149  42.9970 305.8798 0001748 271.6528  88.4123 15.27602500 69017
STARLINK-32919          
1 63150U 25043U   26145.13407990  .00009084  00000+0  33915-3 0  9994
2 63150  43.0001 304.5012 0001237 275.3538  84.7172 15.27587239 69054
STARLINK-32876          
1 63151U 25043V   26145.16604782  .00007841  00000+0  29419-3 0  9999
2 63151  43.0028 303.8783 0001488 257.3569 102.7116 15.27574744 69060
STARLINK-32915          
1 63152U 25043W   26144.93438875  .00025302  00000+0  92500-3 0  9995
2 63152  43.0015 312.4660 0002072 275.4678  84.5937 15.27608914 68940
SEDNA-2                 
1 63153U 25009DQ  26145.15064163  .00007699  00000+0  45704-3 0  9991
2 63153  97.4546 219.2575 0010441 137.0119 223.1929 15.11550698 74648
TJS-15                  
1 63157U 25045A   26144.71344794 -.00000269  00000+0  00000+0 0  9990
2 63157   0.2779  84.9730 0005613 295.0455 213.5325  1.00274561  4523
QIANFAN-73              
1 63159U 25046A   26145.13736221  .00000079  00000+0  10315-3 0  9992
2 63159  88.9689 303.0834 0015252  19.2727 340.8998 13.51014476 69477
QIANFAN-74              
1 63160U 25046B   26145.19495737  .00000095  00000+0  12809-3 0  9992
2 63160  88.9690 302.9667 0001877 100.7131 259.4232 13.51004183 69544
QIANFAN-75              
1 63161U 25046C   26145.18251609  .00000041  00000+0  45078-4 0  9996
2 63161  88.9691 303.2042 0016406  21.7763 338.4083 13.51003817 69415
QIANFAN-76              
1 63162U 25046D   26145.17844001  .00000155  00000+0  22066-3 0  9997
2 63162  88.9692 303.1843 0013974  23.6665 336.5126 13.51008441 69420
QIANFAN-77              
1 63163U 25046E   26145.16398244  .00000083  00000+0  50580-4 0  9993
2 63163  88.9696 299.8457 0012644 293.0470  66.9373 13.96191876 71253
QIANFAN-78              
1 63164U 25046F   26145.14553022  .00000042  00000+0  46054-4 0  9995
2 63164  88.9691 303.0502 0015447  25.1484 335.0416 13.51007836 69495
QIANFAN-79              
1 63165U 25046G   26145.17438953  .00000092  00000+0  12305-3 0  9990
2 63165  88.9694 303.1608 0015160  23.5560 336.6282 13.51007194 69446
QIANFAN-80              
1 63166U 25046H   26145.19084437  .00000040  00000+0  42746-4 0  9993
2 63166  88.9691 302.8615 0014175  28.4032 331.7889 13.51005287 69609
QIANFAN-81              
1 63167U 25046J   26145.17038417  .00000005  00000+0 -10297-4 0  9997
2 63167  88.9687 302.9317 0015049  17.0914 343.0741 13.51013402 69554
QIANFAN-82              
1 63168U 25046K   26145.12906187  .00000056  00000+0  68760-4 0  9994
2 63168  88.9691 302.9796 0013199  25.4948 334.6851 13.51007178 69534
QIANFAN-83              
1 63169U 25046L   26145.08467920  .00000093  00000+0  10430-3 0  9998
2 63169  88.9693 302.4389 0013683   1.2873 358.8317 13.62036304 69830
QIANFAN-84              
1 63170U 25046M   26145.08497876  .00000139  00000+0  19621-3 0  9995
2 63170  88.9691 303.1171 0016106  20.4110 339.7681 13.51030618 69457
QIANFAN-85              
1 63171U 25046N   26145.07975470  .00000059  00000+0  71981-4 0  9995
2 63171  88.9690 302.9880 0013654  24.1135 336.0653 13.51014790 69524
QIANFAN-86              
1 63172U 25046P   26145.16218544  .00000040  00000+0  43141-4 0  9995
2 63172  88.9692 302.8453 0011640  29.6045 330.5763 13.51012452 69619
QIANFAN-87              
1 63173U 25046Q   26145.13329851  .00000088  00000+0  11784-3 0  9996
2 63173  88.9689 302.9538 0012011  24.8939 335.2789 13.51013737 69542
QIANFAN-88              
1 63174U 25046R   26145.14966174  .00000043  00000+0  48391-4 0  9999
2 63174  88.9691 302.9108 0012744  32.0869 328.1055 13.51005690 69574
QIANFAN-89              
1 63175U 25046S   26145.18685115  .00000025  00000+0  19495-4 0  9990
2 63175  88.9691 303.0961 0016956  20.2366 339.9453 13.51012710 69476
QIANFAN-90              
1 63176U 25046T   26145.14139910  .00000110  00000+0  15128-3 0  9997
2 63176  88.9692 303.0734 0013847  20.7091 339.4618 13.51010591 69486
PUNCH-NFI (SMEX 15A)    
1 63178U 25047A   26145.07622507  .00000405  00000+0  68005-4 0  9991
2 63178  97.9565 330.9570 0009998 228.0015 132.0343 14.74740291 64676
PUNCH-WFI 1 (SMEX 15B)  
1 63179U 25047B   26145.11600566  .00000468  00000+0  78222-4 0  9999
2 63179  97.9585 330.8565 0007668 248.9091 111.1298 14.74319122 64660
PUNCH-WFI 3 (SMEX 15D)  
1 63180U 25047C   26145.07091703  .00000417  00000+0  70469-4 0  9992
2 63180  97.9546 330.5388 0008813 238.8553 121.1791 14.74320235 64658
PUNCH-WFI 2 (SMEX 15C)  
1 63181U 25047D   26145.09385023  .00000416  00000+0  70350-4 0  9994
2 63181  97.9567 330.6231 0008006 254.0765 105.9562 14.74320563 64659
